[{"name":"Only You Wedding","phone":"2678610751","url":"http://www.yelp.com/biz/only-you-wedding-philadelphia?utm_campaign=yelp_api&utm_medium=api_v2_search&utm_source=jt1n4V-SWZuF2zsUveiNwQ","street":"1117 S 11th St","city":"Philadelphia","state":"PA","zip":"19147"},{"name":"The Wedding Factor","phone":"2678610409","url":"http://www.yelp.com/biz/the-wedding-factor-philadelphia?utm_campaign=yelp_api&utm_medium=api_v2_search&utm_source=jt1n4V-SWZuF2zsUveiNwQ","street":"125 South St","city":"Philadelphia","state":"PA","zip":"19147"},{"name":"The Wedding Planner","phone":"2152711012","url":"http://www.yelp.com/biz/the-wedding-planner-philadelphia?utm_campaign=yelp_api&utm_medium=api_v2_search&utm_source=jt1n4V-SWZuF2zsUveiNwQ","street":"301 South 18th St","city":"Philadelphia","state":"PA","zip":"19103"},{"name":"Feastivities Events","phone":"2154753338","url":"http://www.yelp.com/biz/feastivities-events-philadelphia?utm_campaign=yelp_api&utm_medium=api_v2_search&utm_source=jt1n4V-SWZuF2zsUveiNwQ","street":"440 Domino Ln","city":"Philadelphia","state":"PA","zip":"19128"},{"name":"Hotel Monaco Philadelphia, a Kimpton Hotel","phone":"2159252111","url":"http://www.yelp.com/biz/hotel-monaco-philadelphia-a-kimpton-hotel-philadelphia?utm_campaign=yelp_api&utm_medium=api_v2_search&utm_source=jt1n4V-SWZuF2zsUveiNwQ","street":"433 Chestnut St","city":"Philadelphia","state":"PA","zip":"19106"},{"name":"confetti & co.","phone":"6102485610","url":"http://www.yelp.com/biz/confetti-and-co-philadelphia?utm_campaign=yelp_api&utm_medium=api_v2_search&utm_source=jt1n4V-SWZuF2zsUveiNwQ","street":null,"city":"Philadelphia","state":"PA","zip":"19125"},{"name":"Jerri Woolworth Weddings and Events","phone":"9014830224","url":"http://www.yelp.com/biz/jerri-woolworth-weddings-and-events-new-york-2?utm_campaign=yelp_api&utm_medium=api_v2_search&utm_source=jt1n4V-SWZuF2zsUveiNwQ","street":null,"city":"New York","state":"NY","zip":"10003"},{"name":"Birchtree Catering","phone":"2157449489","url":"http://www.yelp.com/biz/birchtree-catering-philadelphia-2?utm_campaign=yelp_api&utm_medium=api_v2_search&utm_source=jt1n4V-SWZuF2zsUveiNwQ","street":"4500 Worth St","city":"Philadelphia","state":"PA","zip":"19124"},{"name":"Kimpton Hotel Palomar Philadelphia","phone":"2155635006","url":"http://www.yelp.com/biz/kimpton-hotel-palomar-philadelphia-philadelphia?utm_campaign=yelp_api&utm_medium=api_v2_search&utm_source=jt1n4V-SWZuF2zsUveiNwQ","street":"117 S 17th St","city":"Philadelphia","state":"PA","zip":"19103"},{"name":"EBE Events and Entertainment","phone":"8883232263","url":"http://www.yelp.com/biz/ebe-events-and-entertainment-philadelphia?utm_campaign=yelp_api&utm_medium=api_v2_search&utm_source=jt1n4V-SWZuF2zsUveiNwQ","street":"1030 N Delaware Ave","city":"Philadelphia","state":"PA","zip":"19125"},{"name":"Liberty Weddings","phone":"2677508407","url":"http://www.yelp.com/biz/liberty-weddings-philadelphia-3?utm_campaign=yelp_api&utm_medium=api_v2_search&utm_source=jt1n4V-SWZuF2zsUveiNwQ","street":null,"city":"Philadelphia","state":"PA","zip":"19104"},{"name":"All About Events","phone":"2676272525","url":"http://www.yelp.com/biz/all-about-events-oreland?utm_campaign=yelp_api&utm_medium=api_v2_search&utm_source=jt1n4V-SWZuF2zsUveiNwQ","street":"100 Orlemann Ave","city":"Oreland","state":"PA","zip":"19075"},{"name":"cHill Weddings","phone":"2155860209","url":"http://www.yelp.com/biz/chill-weddings-philadelphia?utm_campaign=yelp_api&utm_medium=api_v2_search&utm_source=jt1n4V-SWZuF2zsUveiNwQ","street":null,"city":"Philadelphia","state":"PA","zip":"19119"},{"name":"The Bridal Event by Bouche Productions","phone":"6109179300","url":"http://www.yelp.com/biz/the-bridal-event-by-bouche-productions-philadelphia?utm_campaign=yelp_api&utm_medium=api_v2_search&utm_source=jt1n4V-SWZuF2zsUveiNwQ","street":null,"city":"Philadelphia","state":"PA","zip":null},{"name":"Paper Flower Weddings & Events","phone":"4843540039","url":"http://www.yelp.com/biz/paper-flower-weddings-and-events-philadelphia?utm_campaign=yelp_api&utm_medium=api_v2_search&utm_source=jt1n4V-SWZuF2zsUveiNwQ","street":null,"city":"Philadelphia","state":"PA","zip":null},{"name":"Jeffrey Miller Catering","phone":"6106223700","url":"http://www.yelp.com/biz/jeffrey-miller-catering-philadelphia?utm_campaign=yelp_api&utm_medium=api_v2_search&utm_source=jt1n4V-SWZuF2zsUveiNwQ","street":"1530 Locust St","city":"Philadelphia","state":"PA","zip":"19102"},{"name":"Philadelphia Wedding Officiant","phone":"2157645770","url":"http://www.yelp.com/biz/philadelphia-wedding-officiant-philadelphia?utm_campaign=yelp_api&utm_medium=api_v2_search&utm_source=jt1n4V-SWZuF2zsUveiNwQ","street":"128 Naudain St","city":"Philadelphia","state":"PA","zip":"19147"},{"name":"Weddings By Lia","phone":"9175583523","url":"http://www.yelp.com/biz/weddings-by-lia-philadelphia?utm_campaign=yelp_api&utm_medium=api_v2_search&utm_source=jt1n4V-SWZuF2zsUveiNwQ","street":"2337 Montrose St","city":"Philadelphia","state":"PA","zip":"19146"},{"name":"Marry Me Philadelphia","phone":"2155897000","url":"http://www.yelp.com/biz/marry-me-philadelphia-philadelphia?utm_campaign=yelp_api&utm_medium=api_v2_search&utm_source=jt1n4V-SWZuF2zsUveiNwQ","street":"8111 Oxford Ave","city":"Philadelphia","state":"PA","zip":"19111"},{"name":"Amber Johnston Photography","phone":"2674089147","url":"http://www.yelp.com/biz/amber-johnston-photography-philadelphia-4?utm_campaign=yelp_api&utm_medium=api_v2_search&utm_source=jt1n4V-SWZuF2zsUveiNwQ","street":"1428 Germantown Ave","city":"Philadelphia","state":"PA","zip":"19125"},{"name":"Plaza Flowers Center City","phone":"2159852374","url":"http://www.yelp.com/biz/plaza-flowers-center-city-philadelphia?utm_campaign=yelp_api&utm_medium=api_v2_search&utm_source=jt1n4V-SWZuF2zsUveiNwQ","street":"1515 Market St","city":"Philadelphia","state":"PA","zip":"19102"},{"name":"Papertini Floral & Event Design","phone":"2674384350","url":"http://www.yelp.com/biz/papertini-floral-and-event-design-philadelphia?utm_campaign=yelp_api&utm_medium=api_v2_search&utm_source=jt1n4V-SWZuF2zsUveiNwQ","street":"16 N 3rd St","city":"Philadelphia","state":"PA","zip":"19106"},{"name":"Sweetwater Portraits","phone":"2676269778","url":"http://www.yelp.com/biz/sweetwater-portraits-philadelphia?utm_campaign=yelp_api&utm_medium=api_v2_search&utm_source=jt1n4V-SWZuF2zsUveiNwQ","street":"755 S 3rd St","city":"Philadelphia","state":"PA","zip":"19147"},{"name":"Water Lily Weddings","phone":"4845536631","url":"http://www.yelp.com/biz/water-lily-weddings-philadelphia-2?utm_campaign=yelp_api&utm_medium=api_v2_search&utm_source=jt1n4V-SWZuF2zsUveiNwQ","street":"135 E Meehan Ave","city":"Philadelphia","state":"PA","zip":"19119"},{"name":"Carolyn Verdi Boutique","phone":"2159252997","url":"http://www.yelp.com/biz/carolyn-verdi-boutique-philadelphia?utm_campaign=yelp_api&utm_medium=api_v2_search&utm_source=jt1n4V-SWZuF2zsUveiNwQ","street":"1746 E Passyunk Ave","city":"Philadelphia","state":"PA","zip":"19148"},{"name":"Journeys of the Heart","phone":"2156638980","url":"http://www.yelp.com/biz/journeys-of-the-heart-philadelphia?utm_campaign=yelp_api&utm_medium=api_v2_search&utm_source=jt1n4V-SWZuF2zsUveiNwQ","street":null,"city":"Philadelphia","state":"PA","zip":"19046"},{"name":"Courtney Space Events","phone":"2672660448","url":"http://www.yelp.com/biz/courtney-space-events-philadelphia?utm_campaign=yelp_api&utm_medium=api_v2_search&utm_source=jt1n4V-SWZuF2zsUveiNwQ","street":null,"city":"Philadelphia","state":"PA","zip":null},{"name":"Kyle Michelle Weddings","phone":"8505451701","url":"http://www.yelp.com/biz/kyle-michelle-weddings-new-york?utm_campaign=yelp_api&utm_medium=api_v2_search&utm_source=jt1n4V-SWZuF2zsUveiNwQ","street":null,"city":"New York","state":"NY","zip":"10013"},{"name":"Food Designs by Axelrod & Bennett Inc","phone":"2158432292","url":"http://www.yelp.com/biz/food-designs-by-axelrod-and-bennett-inc-philadelphia?utm_campaign=yelp_api&utm_medium=api_v2_search&utm_source=jt1n4V-SWZuF2zsUveiNwQ","street":"4429 Whitaker Ave","city":"Philadelphia","state":"PA","zip":"19120"},{"name":"Pegasus Room","phone":"2673857557","url":"http://www.yelp.com/biz/pegasus-room-philadelphia?utm_campaign=yelp_api&utm_medium=api_v2_search&utm_source=jt1n4V-SWZuF2zsUveiNwQ","street":"5534 Pulaski Ave","city":"Philadelphia","state":"PA","zip":"19144"},{"name":"Center Stage Party Planning","phone":"4843932777","url":"http://www.yelp.com/biz/center-stage-party-planning-philadelphia?utm_campaign=yelp_api&utm_medium=api_v2_search&utm_source=jt1n4V-SWZuF2zsUveiNwQ","street":null,"city":"Philadelphia","state":"PA","zip":"19131"},{"name":"Front & Palmer","phone":"2156343002","url":"http://www.yelp.com/biz/front-and-palmer-philadelphia?utm_campaign=yelp_api&utm_medium=api_v2_search&utm_source=jt1n4V-SWZuF2zsUveiNwQ","street":"1750 N Front St","city":"Philadelphia","state":"PA","zip":"19122"},{"name":"Water Works Presented By Cescaphe Event Group","phone":"2152385750","url":"http://www.yelp.com/biz/water-works-presented-by-cescaphe-event-group-philadelphia?utm_campaign=yelp_api&utm_medium=api_v2_search&utm_source=jt1n4V-SWZuF2zsUveiNwQ","street":"640 Water Works Dr","city":"Philadelphia","state":"PA","zip":"19130"},{"name":"Laurel & Elm","phone":"6107249523","url":"http://www.yelp.com/biz/laurel-and-elm-philadelphia?utm_campaign=yelp_api&utm_medium=api_v2_search&utm_source=jt1n4V-SWZuF2zsUveiNwQ","street":"315 N 12th St","city":"Philadelphia","state":"PA","zip":"19107"},{"name":"A Wedding Ring Experience","phone":"8558553312","url":"http://www.yelp.com/biz/a-wedding-ring-experience-brooklyn?utm_campaign=yelp_api&utm_medium=api_v2_search&utm_source=jt1n4V-SWZuF2zsUveiNwQ","street":null,"city":"Brooklyn","state":"NY","zip":"11222"},{"name":"Phoenixville Foundry","phone":"6109178400","url":"http://www.yelp.com/biz/phoenixville-foundry-phoenixville?utm_campaign=yelp_api&utm_medium=api_v2_search&utm_source=jt1n4V-SWZuF2zsUveiNwQ","street":"2 N Main St","city":"Phoenixville","state":"PA","zip":"19460"},{"name":"BG Productions Photography & Videography","phone":"2154351418","url":"http://www.yelp.com/biz/bg-productions-photography-and-videography-philadelphia?utm_campaign=yelp_api&utm_medium=api_v2_search&utm_source=jt1n4V-SWZuF2zsUveiNwQ","street":"Ridge Ave","city":"Philadelphia","state":"PA","zip":"19132"},{"name":"The Event Nanny","phone":"4847580794","url":"http://www.yelp.com/biz/the-event-nanny-philadelphia?utm_campaign=yelp_api&utm_medium=api_v2_search&utm_source=jt1n4V-SWZuF2zsUveiNwQ","street":"Washington Square","city":"Philadelphia","state":"PA","zip":"19106"},{"name":"Elegant Bridal Productions","phone":"9734289156","url":"http://www.yelp.com/biz/elegant-bridal-productions-north-brunswick?utm_campaign=yelp_api&utm_medium=api_v2_search&utm_source=jt1n4V-SWZuF2zsUveiNwQ","street":"395 Willowbrook Dr","city":"North Brunswick","state":"NJ","zip":"08902"},{"name":"Eclipse Entertainers","phone":"8005163632","url":"http://www.yelp.com/biz/eclipse-entertainers-morgantown?utm_campaign=yelp_api&utm_medium=api_v2_search&utm_source=jt1n4V-SWZuF2zsUveiNwQ","street":null,"city":"Morgantown","state":"PA","zip":"19543"},{"name":"BeWedded","phone":"2154703169","url":"http://www.yelp.com/biz/bewedded-philadelphia?utm_campaign=yelp_api&utm_medium=api_v2_search&utm_source=jt1n4V-SWZuF2zsUveiNwQ","street":"942 New Market St","city":"Philadelphia","state":"PA","zip":"19123"},{"name":"Sullivan Owen Floral & Event Design","phone":"2159649790","url":"http://www.yelp.com/biz/sullivan-owen-floral-and-event-design-philadelphia-2?utm_campaign=yelp_api&utm_medium=api_v2_search&utm_source=jt1n4V-SWZuF2zsUveiNwQ","street":"1639 N Hancock St","city":"Philadelphia","state":"PA","zip":"19122"},{"name":"Reveriemade","phone":"6097590136","url":"http://www.yelp.com/biz/reveriemade-hamilton?utm_campaign=yelp_api&utm_medium=api_v2_search&utm_source=jt1n4V-SWZuF2zsUveiNwQ","street":null,"city":"Hamilton","state":"NJ","zip":"08620"},{"name":"Magnifique Decor","phone":"2154836880","url":"http://www.yelp.com/biz/magnifique-decor-philadelphia?utm_campaign=yelp_api&utm_medium=api_v2_search&utm_source=jt1n4V-SWZuF2zsUveiNwQ","street":"4134 Manayunk Ave","city":"Philadelphia","state":"PA","zip":"19128"},{"name":"Power Events Catering","phone":"2672549810","url":"http://www.yelp.com/biz/power-events-catering-philadelphia?utm_campaign=yelp_api&utm_medium=api_v2_search&utm_source=jt1n4V-SWZuF2zsUveiNwQ","street":null,"city":"Philadelphia","state":"PA","zip":null},{"name":"Kairos Room","phone":"4843614697","url":"http://www.yelp.com/biz/kairos-room-philadelphia?utm_campaign=yelp_api&utm_medium=api_v2_search&utm_source=jt1n4V-SWZuF2zsUveiNwQ","street":"3502 Scotts Ln, Bldg 4","city":"Philadelphia","state":"PA","zip":"19129"},{"name":"SRB Events","phone":"2674714417","url":"http://www.yelp.com/biz/srb-events-philadelphia?utm_campaign=yelp_api&utm_medium=api_v2_search&utm_source=jt1n4V-SWZuF2zsUveiNwQ","street":"3580 Indian Queen Ln","city":"Philadelphia","state":"PA","zip":"19129"},{"name":"Events by Renee","phone":"4844327202","url":"http://www.yelp.com/biz/events-by-renee-conshohocken?utm_campaign=yelp_api&utm_medium=api_v2_search&utm_source=jt1n4V-SWZuF2zsUveiNwQ","street":"700 Fayette St","city":"Conshohocken","state":"PA","zip":"19428"},{"name":"Versatile Event Designs","phone":"7329290845","url":"http://www.yelp.com/biz/versatile-event-designs-toms-river?utm_campaign=yelp_api&utm_medium=api_v2_search&utm_source=jt1n4V-SWZuF2zsUveiNwQ","street":"2214 Rt 37","city":"Toms River","state":"NJ","zip":"08753"},{"name":"The Chestnut Club","phone":"2155631900","url":"http://www.yelp.com/biz/the-chestnut-club-philadelphia?utm_campaign=yelp_api&utm_medium=api_v2_search&utm_source=jt1n4V-SWZuF2zsUveiNwQ","street":"1529 Chestnut St","city":"Philadelphia","state":"PA","zip":"19102"},{"name":"Something Different...In Flowers","phone":"2154831207","url":"http://www.yelp.com/biz/something-different-in-flowers-philadelphia?utm_campaign=yelp_api&utm_medium=api_v2_search&utm_source=jt1n4V-SWZuF2zsUveiNwQ","street":"399 Leverington Ave","city":"Philadelphia","state":"PA","zip":"19128"},{"name":"All Who Wander Event Design","phone":"9739700781","url":"http://www.yelp.com/biz/all-who-wander-event-design-hoboken?utm_campaign=yelp_api&utm_medium=api_v2_search&utm_source=jt1n4V-SWZuF2zsUveiNwQ","street":null,"city":"Hoboken","state":"NJ","zip":"07030"},{"name":"Cutting Edge Entertainment","phone":"2159387950","url":"http://www.yelp.com/biz/cutting-edge-entertainment-huntingdon-valley?utm_campaign=yelp_api&utm_medium=api_v2_search&utm_source=jt1n4V-SWZuF2zsUveiNwQ","street":"161 Tomlinson Rd","city":"Huntingdon Valley","state":"PA","zip":"19006"},{"name":"Willow Weddings and Wellness","phone":"7742793521","url":"http://www.yelp.com/biz/willow-weddings-and-wellness-nether-providence-township?utm_campaign=yelp_api&utm_medium=api_v2_search&utm_source=jt1n4V-SWZuF2zsUveiNwQ","street":null,"city":"Nether Providence Township","state":"PA","zip":"19086"},{"name":"Paper On Pine","phone":"2156250100","url":"http://www.yelp.com/biz/paper-on-pine-philadelphia?utm_campaign=yelp_api&utm_medium=api_v2_search&utm_source=jt1n4V-SWZuF2zsUveiNwQ","street":"Midtown Village","city":"Philadelphia","state":"PA","zip":"19107"},{"name":"This Is It Entertainment","phone":"7329369916","url":"http://www.yelp.com/biz/this-is-it-entertainment-tinton-falls?utm_campaign=yelp_api&utm_medium=api_v2_search&utm_source=jt1n4V-SWZuF2zsUveiNwQ","street":"229 Newman Springs Rd","city":"Tinton Falls","state":"NJ","zip":"07724"},{"name":"Tasty Table Catering","phone":"6104079775","url":"http://www.yelp.com/biz/tasty-table-catering-berwyn?utm_campaign=yelp_api&utm_medium=api_v2_search&utm_source=jt1n4V-SWZuF2zsUveiNwQ","street":"10 Leopard Road","city":"Berwyn","state":"PA","zip":"19312"},{"name":"Robertson's Flowers & Events","phone":"2158363050","url":"http://www.yelp.com/biz/robertsons-flowers-and-events-wyndmoor?utm_campaign=yelp_api&utm_medium=api_v2_search&utm_source=jt1n4V-SWZuF2zsUveiNwQ","street":"1301 E Mermaid Ln","city":"Glenside","state":"PA","zip":"19038"},{"name":"Melissa-May Designs","phone":"8003805391","url":"http://www.yelp.com/biz/melissa-may-designs-horsham?utm_campaign=yelp_api&utm_medium=api_v2_search&utm_source=jt1n4V-SWZuF2zsUveiNwQ","street":null,"city":"Horsham","state":"PA","zip":null},{"name":"Designs By M C James","phone":"8562193821","url":"http://www.yelp.com/biz/designs-by-m-c-james-bellmawr?utm_campaign=yelp_api&utm_medium=api_v2_search&utm_source=jt1n4V-SWZuF2zsUveiNwQ","street":"1 W Kings Hwy","city":"Bellmawr","state":"NJ","zip":"08031"},{"name":"The Velvet Room","phone":"6108132109","url":"http://www.yelp.com/biz/the-velvet-room-philadelphia?utm_campaign=yelp_api&utm_medium=api_v2_search&utm_source=jt1n4V-SWZuF2zsUveiNwQ","street":"6139 Germantown Ave","city":"Philadelphia","state":"PA","zip":"19144"},{"name":"Impulse Entertainment","phone":"2679691144","url":"http://www.yelp.com/biz/impulse-entertainment-hatboro?utm_campaign=yelp_api&utm_medium=api_v2_search&utm_source=jt1n4V-SWZuF2zsUveiNwQ","street":"483 Jefferson Ave","city":"Hatboro","state":"PA","zip":"19040"},{"name":"Asters Florist","phone":"8568698500","url":"http://www.yelp.com/biz/asters-floral-shop-westmont?utm_campaign=yelp_api&utm_medium=api_v2_search&utm_source=jt1n4V-SWZuF2zsUveiNwQ","street":"825 Haddon Ave","city":"Collingswood","state":"NJ","zip":"08108"},{"name":"Seal Events","phone":"6107899922","url":"http://www.yelp.com/biz/seal-events-havertown?utm_campaign=yelp_api&utm_medium=api_v2_search&utm_source=jt1n4V-SWZuF2zsUveiNwQ","street":"110 W Eagle Rd","city":"Havertown","state":"PA","zip":"19083"},{"name":"SkyBrunch at Top of the Tower","phone":"2155571999","url":"http://www.yelp.com/biz/skybrunch-at-top-of-the-tower-philadelphia?utm_campaign=yelp_api&utm_medium=api_v2_search&utm_source=jt1n4V-SWZuF2zsUveiNwQ","street":"1717 Arch St","city":"Philadelphia","state":"PA","zip":"19103"},{"name":"DollFace Studio","phone":"2156842970","url":"http://www.yelp.com/biz/dollface-studio-philadelphia?utm_campaign=yelp_api&utm_medium=api_v2_search&utm_source=jt1n4V-SWZuF2zsUveiNwQ","street":"1639 N. Hancock","city":"Philadelphia","state":"PA","zip":"19122"},{"name":"Remixologists","phone":"2153017350","url":"http://www.yelp.com/biz/remixologists-new-york?utm_campaign=yelp_api&utm_medium=api_v2_search&utm_source=jt1n4V-SWZuF2zsUveiNwQ","street":null,"city":"New York","state":"NY","zip":"10017"},{"name":"Always Fabulous Events","phone":"8666539966","url":"http://www.yelp.com/biz/always-fabulous-events-abington?utm_campaign=yelp_api&utm_medium=api_v2_search&utm_source=jt1n4V-SWZuF2zsUveiNwQ","street":null,"city":"Abington","state":"PA","zip":"19001"},{"name":"MaryJane's Flowers and Gifts","phone":"8563362912","url":"http://www.yelp.com/biz/maryjanes-flowers-and-gifts-berlin-2?utm_campaign=yelp_api&utm_medium=api_v2_search&utm_source=jt1n4V-SWZuF2zsUveiNwQ","street":"111 W White Horse Pike","city":"Berlin","state":"NJ","zip":"08009"},{"name":"CTO Artists","phone":"8772866874","url":"http://www.yelp.com/biz/cto-artists-philadelphia-3?utm_campaign=yelp_api&utm_medium=api_v2_search&utm_source=jt1n4V-SWZuF2zsUveiNwQ","street":"4450 Main St","city":"Philadelphia","state":"PA","zip":"19127"},{"name":"The Winery at Elk Manor","phone":"4103170072","url":"http://www.yelp.com/biz/the-winery-at-elk-manor-north-east?utm_campaign=yelp_api&utm_medium=api_v2_search&utm_source=jt1n4V-SWZuF2zsUveiNwQ","street":"88 Rivers Edge Rd","city":"North East","state":"MD","zip":"21901"},{"name":"Natasha Mae's Heavenly Designs","phone":"2157456237","url":"http://www.yelp.com/biz/natasha-maes-heavenly-designs-philadelphia?utm_campaign=yelp_api&utm_medium=api_v2_search&utm_source=jt1n4V-SWZuF2zsUveiNwQ","street":"6706 Rising Sun Ave","city":"Philadelphia","state":"PA","zip":"19111"},{"name":"Emotional Celebrations","phone":"4842732164","url":"http://www.yelp.com/biz/emotional-celebrations-upper-darby-2?utm_campaign=yelp_api&utm_medium=api_v2_search&utm_source=jt1n4V-SWZuF2zsUveiNwQ","street":null,"city":"Upper Darby","state":"PA","zip":null},{"name":"Soundfactor Entertainment & Events","phone":"4842565877","url":"http://www.yelp.com/biz/soundfactor-entertainment-and-events-boyertown?utm_campaign=yelp_api&utm_medium=api_v2_search&utm_source=jt1n4V-SWZuF2zsUveiNwQ","street":null,"city":"Boyertown","state":"PA","zip":"19512"},{"name":"JPG Photography","phone":"8885743686","url":"http://www.yelp.com/biz/jpg-photography-philadelphia?utm_campaign=yelp_api&utm_medium=api_v2_search&utm_source=jt1n4V-SWZuF2zsUveiNwQ","street":"180 Green Ln","city":"Philadelphia","state":"PA","zip":"19127"},{"name":"Bailey PR and Events","phone":"2157201446","url":"http://www.yelp.com/biz/bailey-pr-and-events-philadelphia?utm_campaign=yelp_api&utm_medium=api_v2_search&utm_source=jt1n4V-SWZuF2zsUveiNwQ","street":"2200 Washington Ln","city":"Philadelphia","state":"PA","zip":"19138"},{"name":"Saphassion Events","phone":"8885016444","url":"http://www.yelp.com/biz/saphassion-events-lansdale?utm_campaign=yelp_api&utm_medium=api_v2_search&utm_source=jt1n4V-SWZuF2zsUveiNwQ","street":null,"city":"Lansdale","state":"PA","zip":"19446"},{"name":"The Westin Philadelphia","phone":"2155631600","url":"http://www.yelp.com/biz/the-westin-philadelphia-philadelphia?utm_campaign=yelp_api&utm_medium=api_v2_search&utm_source=jt1n4V-SWZuF2zsUveiNwQ","street":"99 S 17th St","city":"Philadelphia","state":"PA","zip":"19103"},{"name":"The Logan Hotel","phone":"2159631500","url":"http://www.yelp.com/biz/the-logan-hotel-philadelphia?utm_campaign=yelp_api&utm_medium=api_v2_search&utm_source=jt1n4V-SWZuF2zsUveiNwQ","street":"1 Logan Sq","city":"Philadelphia","state":"PA","zip":"19103"},{"name":"Woman's Club of Bala Cynwyd","phone":"6106649107","url":"http://www.yelp.com/biz/womans-club-of-bala-cynwyd-bala-cynwyd?utm_campaign=yelp_api&utm_medium=api_v2_search&utm_source=jt1n4V-SWZuF2zsUveiNwQ","street":"382 Bala Ave","city":"Bala Cynwyd","state":"PA","zip":"19004"},{"name":"Artesano Gallery & Iron Works","phone":"2154839273","url":"http://www.yelp.com/biz/artesano-gallery-and-iron-works-philadelphia?utm_campaign=yelp_api&utm_medium=api_v2_search&utm_source=jt1n4V-SWZuF2zsUveiNwQ","street":"4457 Main St","city":"Philadelphia","state":"PA","zip":"19127"},{"name":"Beat Street Station","phone":"2155083000","url":"http://www.yelp.com/biz/beat-street-station-philadelphia?utm_campaign=yelp_api&utm_medium=api_v2_search&utm_source=jt1n4V-SWZuF2zsUveiNwQ","street":"4401 Cresson St","city":"Philadelphia","state":"PA","zip":"19127"},{"name":"Atrium at the Curtis Center","phone":"2152385750","url":"http://www.yelp.com/biz/atrium-at-the-curtis-center-philadelphia?utm_campaign=yelp_api&utm_medium=api_v2_search&utm_source=jt1n4V-SWZuF2zsUveiNwQ","street":"601 Walnut St","city":"Philadelphia","state":"PA","zip":"19106"},{"name":"Leaves of Grass Floral Design","phone":"2672313487","url":"http://www.yelp.com/biz/leaves-of-grass-floral-design-philadelphia?utm_campaign=yelp_api&utm_medium=api_v2_search&utm_source=jt1n4V-SWZuF2zsUveiNwQ","street":null,"city":"Philadelphia","state":"PA","zip":null},{"name":"StiltGirl Party Entertainment","phone":"6105057973","url":"http://www.yelp.com/biz/stiltgirl-party-entertainment-philadelphia?utm_campaign=yelp_api&utm_medium=api_v2_search&utm_source=jt1n4V-SWZuF2zsUveiNwQ","street":null,"city":"Philadelphia","state":"PA","zip":"19138"},{"name":"DJ Ceremony","phone":"6462798777","url":"http://www.yelp.com/biz/dj-ceremony-new-york?utm_campaign=yelp_api&utm_medium=api_v2_search&utm_source=jt1n4V-SWZuF2zsUveiNwQ","street":"97 E 7th St","city":"New York","state":"NY","zip":"10009"},{"name":"Synergetic Sound & Lighting","phone":"8009359714","url":"http://www.yelp.com/biz/synergetic-sound-and-lighting-bensalem-2?utm_campaign=yelp_api&utm_medium=api_v2_search&utm_source=jt1n4V-SWZuF2zsUveiNwQ","street":"776 Haunted Ln","city":"Bensalem","state":"PA","zip":"19020"},{"name":"Atomic Tangerine Film Co.","phone":"2676145661","url":"http://www.yelp.com/biz/atomic-tangerine-film-co-philadelphia?utm_campaign=yelp_api&utm_medium=api_v2_search&utm_source=jt1n4V-SWZuF2zsUveiNwQ","street":null,"city":"Philadelphia","state":"PA","zip":"19106"},{"name":"Weddings By Aretha","phone":"9084120595","url":"http://www.yelp.com/biz/weddings-by-aretha-plainfield?utm_campaign=yelp_api&utm_medium=api_v2_search&utm_source=jt1n4V-SWZuF2zsUveiNwQ","street":"1161 Woodmere Pl","city":"Plainfield","state":"NJ","zip":"07062"},{"name":"Fine Art Productions","phone":"8884947909","url":"http://www.yelp.com/biz/fine-art-productions-edison?utm_campaign=yelp_api&utm_medium=api_v2_search&utm_source=jt1n4V-SWZuF2zsUveiNwQ","street":"1655 Oak Tree Rd","city":"Edison","state":"NJ","zip":"08820"},{"name":"D24K Sound & Productions","phone":"2157391908","url":"http://www.yelp.com/biz/d24k-sound-and-productions-philadelphia?utm_campaign=yelp_api&utm_medium=api_v2_search&utm_source=jt1n4V-SWZuF2zsUveiNwQ","street":"1824 Germantown Ave","city":"Philadelphia","state":"PA","zip":"19122"},{"name":"Old Pine Community Center","phone":"2156272493","url":"http://www.yelp.com/biz/old-pine-community-center-philadelphia?utm_campaign=yelp_api&utm_medium=api_v2_search&utm_source=jt1n4V-SWZuF2zsUveiNwQ","street":"401 Lombard St","city":"Philadelphia","state":"PA","zip":"19147"},{"name":"Miss Rachel's Pantry","phone":"2157980053","url":"http://www.yelp.com/biz/miss-rachels-pantry-philadelphia?utm_campaign=yelp_api&utm_medium=api_v2_search&utm_source=jt1n4V-SWZuF2zsUveiNwQ","street":"1938 S. Chadwick Street","city":"Philadelphia","state":"PA","zip":"19145"},{"name":"Stella Maris Bridal Boutique","phone":"6104614400","url":"http://www.yelp.com/biz/stella-maris-bridal-boutique-and-dress-shop-inc-holmes-2?utm_campaign=yelp_api&utm_medium=api_v2_search&utm_source=jt1n4V-SWZuF2zsUveiNwQ","street":"2339 Macdade Blvd","city":"Holmes","state":"PA","zip":"19043"},{"name":"Paper Source","phone":"2157322324","url":"http://www.yelp.com/biz/paper-source-philadelphia?utm_campaign=yelp_api&utm_medium=api_v2_search&utm_source=jt1n4V-SWZuF2zsUveiNwQ","street":"1628 Walnut St","city":"Philadelphia","state":"PA","zip":"19103"},{"name":"Herb Scott Catering","phone":"2158421609","url":"http://www.yelp.com/biz/herb-scott-catering-philadelphia?utm_campaign=yelp_api&utm_medium=api_v2_search&utm_source=jt1n4V-SWZuF2zsUveiNwQ","street":"6531 Germantown Ave","city":"Philadelphia","state":"PA","zip":"19119"},{"name":"Carl Alan Floral Designs LTD","phone":"2152460171","url":"http://www.yelp.com/biz/carl-alan-floral-designs-ltd-philadelphia-4?utm_campaign=yelp_api&utm_medium=api_v2_search&utm_source=jt1n4V-SWZuF2zsUveiNwQ","street":"1700 Market St","city":"Philadelphia","state":"PA","zip":"19103"},{"name":"White Ribbons Event Design","phone":"4844128599","url":"http://www.yelp.com/biz/white-ribbons-event-design-ardmore?utm_campaign=yelp_api&utm_medium=api_v2_search&utm_source=jt1n4V-SWZuF2zsUveiNwQ","street":null,"city":"Ardmore","state":"PA","zip":"19003"},{"name":"Bachelor Boys Band","phone":"5177752815","url":"http://www.yelp.com/biz/bachelor-boys-band-philadelphia?utm_campaign=yelp_api&utm_medium=api_v2_search&utm_source=jt1n4V-SWZuF2zsUveiNwQ","street":null,"city":"Philadelphia","state":"PA","zip":"19101"},{"name":"Alfred Of Philadelphia Florist","phone":"6105326200","url":"http://www.yelp.com/biz/alfred-of-philadelphia-glenolden?utm_campaign=yelp_api&utm_medium=api_v2_search&utm_source=jt1n4V-SWZuF2zsUveiNwQ","street":"1050 W Ashland Ave","city":"Glenolden","state":"PA","zip":"19036"},{"name":"Cescaphe Ballroom","phone":"2152385750","url":"http://www.yelp.com/biz/cescaphe-ballroom-philadelphia?utm_campaign=yelp_api&utm_medium=api_v2_search&utm_source=jt1n4V-SWZuF2zsUveiNwQ","street":"923 N 2nd St","city":"Philadelphia","state":"PA","zip":"19123"},{"name":"Accents by Michele Flower and Cake Studio","phone":"6103565683","url":"http://www.yelp.com/biz/accents-by-michele-flower-and-cake-studio-newtown-square?utm_campaign=yelp_api&utm_medium=api_v2_search&utm_source=jt1n4V-SWZuF2zsUveiNwQ","street":"4003 West Chester Pike","city":"Newtown Square","state":"PA","zip":"19073"},{"name":"The Palace Catering","phone":"8562282348","url":"http://www.yelp.com/biz/the-palace-catering-blackwood?utm_campaign=yelp_api&utm_medium=api_v2_search&utm_source=jt1n4V-SWZuF2zsUveiNwQ","street":"109 N Black Horse Pike","city":"Blackwood","state":"NJ","zip":"08012"},{"name":"Tendenza","phone":"2152385750","url":"http://www.yelp.com/biz/tendenza-philadelphia?utm_campaign=yelp_api&utm_medium=api_v2_search&utm_source=jt1n4V-SWZuF2zsUveiNwQ","street":"969 N  2nd St","city":"Philadelphia","state":"PA","zip":"19123"},{"name":"Miles Table & Catering","phone":"2156513040","url":"http://www.yelp.com/biz/miles-table-and-catering-philadelphia?utm_campaign=yelp_api&utm_medium=api_v2_search&utm_source=jt1n4V-SWZuF2zsUveiNwQ","street":"1620 South St","city":"Philadelphia","state":"PA","zip":"19146"},{"name":"DJ Kernsy","phone":"9292240136","url":"http://www.yelp.com/biz/dj-kernsy-brooklyn?utm_campaign=yelp_api&utm_medium=api_v2_search&utm_source=jt1n4V-SWZuF2zsUveiNwQ","street":null,"city":"Brooklyn","state":"NY","zip":"11222"},{"name":"Sanderson, C. J.","phone":"8568450019","url":"http://www.yelp.com/biz/c-j-sanderson-and-son-florist-woodbury?utm_campaign=yelp_api&utm_medium=api_v2_search&utm_source=jt1n4V-SWZuF2zsUveiNwQ","street":"435 Morris St","city":"Woodbury","state":"NJ","zip":"08096"},{"name":"Viva Love Photography","phone":"3016515829","url":"http://www.yelp.com/biz/viva-love-photography-philadelphia?utm_campaign=yelp_api&utm_medium=api_v2_search&utm_source=jt1n4V-SWZuF2zsUveiNwQ","street":"1642 S. Broad St.","city":"Philadelphia","state":"PA","zip":"19145"},{"name":"Philadelphia's Magic Gardens","phone":"2157330390","url":"http://www.yelp.com/biz/philadelphias-magic-gardens-philadelphia?utm_campaign=yelp_api&utm_medium=api_v2_search&utm_source=jt1n4V-SWZuF2zsUveiNwQ","street":"1020 South St","city":"Philadelphia","state":"PA","zip":"19147"},{"name":"Martelli Flower Co.","phone":"2157393112","url":"http://www.yelp.com/biz/calvello-floral-co-mount-laurel?utm_campaign=yelp_api&utm_medium=api_v2_search&utm_source=jt1n4V-SWZuF2zsUveiNwQ","street":"3747 Church Rd","city":"Mount Laurel","state":"NJ","zip":"08054"},{"name":"Sofitel Philadelphia","phone":"2155698300","url":"http://www.yelp.com/biz/sofitel-philadelphia-philadelphia?utm_campaign=yelp_api&utm_medium=api_v2_search&utm_source=jt1n4V-SWZuF2zsUveiNwQ","street":"120 S 17th St","city":"Philadelphia","state":"PA","zip":"19103"},{"name":"Bridgemen's Ballroom","phone":"2156763002","url":"http://www.yelp.com/biz/bridgemens-ballroom-philadelphia?utm_campaign=yelp_api&utm_medium=api_v2_search&utm_source=jt1n4V-SWZuF2zsUveiNwQ","street":"11600 Norcom Rd","city":"Philadelphia","state":"PA","zip":"19154"},{"name":"Sunrise Florist","phone":"8562326800","url":"http://www.yelp.com/biz/sunrise-florist-blackwood?utm_campaign=yelp_api&utm_medium=api_v2_search&utm_source=jt1n4V-SWZuF2zsUveiNwQ","street":"128 W Church St","city":"Blackwood","state":"NJ","zip":"08012"},{"name":"Scratch Weddings","phone":"8669558580","url":"http://www.yelp.com/biz/scratch-weddings-philadelphia-2?utm_campaign=yelp_api&utm_medium=api_v2_search&utm_source=jt1n4V-SWZuF2zsUveiNwQ","street":"1735 Market St","city":"Philadelphia","state":"PA","zip":"19139"},{"name":"Daniel Moyer Photography","phone":"6104629392","url":"http://www.yelp.com/biz/daniel-moyer-photography-glenside?utm_campaign=yelp_api&utm_medium=api_v2_search&utm_source=jt1n4V-SWZuF2zsUveiNwQ","street":null,"city":"Glenside","state":"PA","zip":"19038"},{"name":"12th Street Catering","phone":"2153868595","url":"http://www.yelp.com/biz/12th-street-catering-philadelphia?utm_campaign=yelp_api&utm_medium=api_v2_search&utm_source=jt1n4V-SWZuF2zsUveiNwQ","street":"3312-20 Spring Garden St","city":"Philadelphia","state":"PA","zip":"19104"},{"name":"Hyatt at The Bellevue","phone":"2158931234","url":"http://www.yelp.com/biz/hyatt-at-the-bellevue-philadelphia?utm_campaign=yelp_api&utm_medium=api_v2_search&utm_source=jt1n4V-SWZuF2zsUveiNwQ","street":"200 South Broad Street","city":"Philadelphia","state":"PA","zip":"19102"},{"name":"McMasters Photography","phone":"7173301437","url":"http://www.yelp.com/biz/mcmasters-photography-ephrata?utm_campaign=yelp_api&utm_medium=api_v2_search&utm_source=jt1n4V-SWZuF2zsUveiNwQ","street":"139 Church Ave","city":"Ephrata","state":"PA","zip":"17522"},{"name":"Le Meridien Philadelphia","phone":"2154228200","url":"http://www.yelp.com/biz/le-meridien-philadelphia-philadelphia?utm_campaign=yelp_api&utm_medium=api_v2_search&utm_source=jt1n4V-SWZuF2zsUveiNwQ","street":"1421 Arch Street","city":"Philadelphia","state":"PA","zip":"19102"},{"name":"Brambles Florist","phone":"6103970400","url":"http://www.yelp.com/biz/brambles-florist-lafayette-hill?utm_campaign=yelp_api&utm_medium=api_v2_search&utm_source=jt1n4V-SWZuF2zsUveiNwQ","street":"500 Germantown Pike","city":"Lafayette Hill","state":"PA","zip":"19444"},{"name":"Remixologists","phone":"2153017350","url":"http://www.yelp.com/biz/remixologists-philadelphia?utm_campaign=yelp_api&utm_medium=api_v2_search&utm_source=jt1n4V-SWZuF2zsUveiNwQ","street":null,"city":"Philadelphia","state":"PA","zip":"19103"},{"name":"Chef's Table Catering","phone":"2159258360","url":"http://www.yelp.com/biz/chefs-table-catering-philadelphia?utm_campaign=yelp_api&utm_medium=api_v2_search&utm_source=jt1n4V-SWZuF2zsUveiNwQ","street":"231 South St","city":"Philadelphia","state":"PA","zip":"19147"},{"name":"Joshua's Catering","phone":"2152241800","url":"http://www.yelp.com/biz/joshuas-catering-philadelphia?utm_campaign=yelp_api&utm_medium=api_v2_search&utm_source=jt1n4V-SWZuF2zsUveiNwQ","street":"804 Oak Ln Ave","city":"Philadelphia","state":"PA","zip":"19126"},{"name":"The Twisted Tail","phone":"2155582471","url":"http://www.yelp.com/biz/the-twisted-tail-philadelphia?utm_campaign=yelp_api&utm_medium=api_v2_search&utm_source=jt1n4V-SWZuF2zsUveiNwQ","street":"509 S 2nd St","city":"Philadelphia","state":"PA","zip":"19147"},{"name":"Philadelphia Marriott Downtown","phone":"2156252900","url":"http://www.yelp.com/biz/philadelphia-marriott-downtown-philadelphia-3?utm_campaign=yelp_api&utm_medium=api_v2_search&utm_source=jt1n4V-SWZuF2zsUveiNwQ","street":"1201 Market Street","city":"Philadelphia","state":"PA","zip":"19107"},{"name":"Omoi Zakka Shop","phone":"2155450963","url":"http://www.yelp.com/biz/omoi-zakka-shop-philadelphia?utm_campaign=yelp_api&utm_medium=api_v2_search&utm_source=jt1n4V-SWZuF2zsUveiNwQ","street":"1608 Pine St","city":"Philadelphia","state":"PA","zip":"19103"},{"name":"Events by Alyss","phone":"8566932416","url":"http://www.yelp.com/biz/events-by-alyss-clementon?utm_campaign=yelp_api&utm_medium=api_v2_search&utm_source=jt1n4V-SWZuF2zsUveiNwQ","street":null,"city":"Clementon","state":"NJ","zip":null},{"name":"Narola Design + Letterpress","phone":"8564521404","url":"http://www.yelp.com/biz/narola-design-letterpress-philadelphia?utm_campaign=yelp_api&utm_medium=api_v2_search&utm_source=jt1n4V-SWZuF2zsUveiNwQ","street":null,"city":"Philadelphia","state":"PA","zip":"19147"},{"name":"City Tavern","phone":"2154131443","url":"http://www.yelp.com/biz/city-tavern-philadelphia?utm_campaign=yelp_api&utm_medium=api_v2_search&utm_source=jt1n4V-SWZuF2zsUveiNwQ","street":"138 S 2nd St","city":"Philadelphia","state":"PA","zip":"19106"},{"name":"Shea Roggio Photography","phone":"4849953729","url":"http://www.yelp.com/biz/shea-roggio-photography-philadelphia?utm_campaign=yelp_api&utm_medium=api_v2_search&utm_source=jt1n4V-SWZuF2zsUveiNwQ","street":null,"city":"Philadelphia","state":"PA","zip":"19123"},{"name":"AIA Bookstore & Design Center","phone":"2155693188","url":"http://www.yelp.com/biz/aia-bookstore-and-design-center-philadelphia-2?utm_campaign=yelp_api&utm_medium=api_v2_search&utm_source=jt1n4V-SWZuF2zsUveiNwQ","street":"1218 Arch St","city":"Philadelphia","state":"PA","zip":"19107"},{"name":"Spark Photography","phone":"2155083639","url":"http://www.yelp.com/biz/spark-photography-philadelphia?utm_campaign=yelp_api&utm_medium=api_v2_search&utm_source=jt1n4V-SWZuF2zsUveiNwQ","street":null,"city":"Philadelphia","state":"PA","zip":"19128"},{"name":"Infinity Caterers Inc","phone":"2155097280","url":"http://www.yelp.com/biz/infinity-caterers-inc-philadelphia?utm_campaign=yelp_api&utm_medium=api_v2_search&utm_source=jt1n4V-SWZuF2zsUveiNwQ","street":"4401 cresson street","city":"Philadelphia","state":"PA","zip":"19127"},{"name":"Sheraton Philadelphia Society Hill Hotel","phone":"2152386000","url":"http://www.yelp.com/biz/sheraton-philadelphia-society-hill-hotel-philadelphia?utm_campaign=yelp_api&utm_medium=api_v2_search&utm_source=jt1n4V-SWZuF2zsUveiNwQ","street":"One Dock St","city":"Philadelphia","state":"PA","zip":"19106"},{"name":"Sonesta Hotel","phone":"8007663782","url":"http://www.yelp.com/biz/sonesta-hotel-philadelphia?utm_campaign=yelp_api&utm_medium=api_v2_search&utm_source=jt1n4V-SWZuF2zsUveiNwQ","street":"1800 Market St","city":"Philadelphia","state":"PA","zip":"19103"},{"name":"Colonial Dames Society","phone":"2157356737","url":"http://www.yelp.com/biz/colonial-dames-society-philadelphia?utm_campaign=yelp_api&utm_medium=api_v2_search&utm_source=jt1n4V-SWZuF2zsUveiNwQ","street":"1630 Latimer St","city":"Philadelphia","state":"PA","zip":"19103"},{"name":"The Piazza at Schmidt's","phone":"2158257552","url":"http://www.yelp.com/biz/the-piazza-at-schmidts-philadelphia?utm_campaign=yelp_api&utm_medium=api_v2_search&utm_source=jt1n4V-SWZuF2zsUveiNwQ","street":"1001 N 2nd St","city":"Philadelphia","state":"PA","zip":"19123"},{"name":"Crowne Plaza Philadelphia-Cherry Hill","phone":"8566656666","url":"http://www.yelp.com/biz/crowne-plaza-philadelphia-cherry-hill-cherry-hill?utm_campaign=yelp_api&utm_medium=api_v2_search&utm_source=jt1n4V-SWZuF2zsUveiNwQ","street":"2349 Marlton Pike W","city":"Cherry Hill","state":"NJ","zip":"08002"},{"name":"Philadelphia Sightseeing Tours & Transportation","phone":"2159222300","url":"http://www.yelp.com/biz/philadelphia-sightseeing-tours-and-transportation-philadelphia?utm_campaign=yelp_api&utm_medium=api_v2_search&utm_source=jt1n4V-SWZuF2zsUveiNwQ","street":"111 S Independence Mall E","city":"Philadelphia","state":"PA","zip":"19106"},{"name":"Catering By Design","phone":"2158669500","url":"http://www.yelp.com/biz/catering-by-design-philadelphia?utm_campaign=yelp_api&utm_medium=api_v2_search&utm_source=jt1n4V-SWZuF2zsUveiNwQ","street":"18 W Hortter St","city":"Philadelphia","state":"PA","zip":"19119"},{"name":"Philly Custom DJ","phone":"9179512400","url":"http://www.yelp.com/biz/philly-custom-dj-cherry-hill-2?utm_campaign=yelp_api&utm_medium=api_v2_search&utm_source=jt1n4V-SWZuF2zsUveiNwQ","street":"302 Pleasant Dr","city":"Cherry Hill","state":"NJ","zip":"08003"},{"name":"Abington Art Center- Private Events","phone":"2158874882","url":"http://www.yelp.com/biz/abington-art-center-private-events-jenkintown?utm_campaign=yelp_api&utm_medium=api_v2_search&utm_source=jt1n4V-SWZuF2zsUveiNwQ","street":"515 Meetinghouse Rd","city":"Jenkintown","state":"PA","zip":"19046"},{"name":"Wesley Skold DJ","phone":"6104665482","url":"http://www.yelp.com/biz/wesley-skold-dj-philadelphia?utm_campaign=yelp_api&utm_medium=api_v2_search&utm_source=jt1n4V-SWZuF2zsUveiNwQ","street":null,"city":"Philadelphia","state":"PA","zip":"19104"},{"name":"Regal Ballroom","phone":"2157444466","url":"http://www.yelp.com/biz/regal-ballroom-philadelphia?utm_campaign=yelp_api&utm_medium=api_v2_search&utm_source=jt1n4V-SWZuF2zsUveiNwQ","street":"5411 Oxford Ave","city":"Philadelphia","state":"PA","zip":"19124"},{"name":"Celebrations by Rachael","phone":"6103577152","url":"http://www.yelp.com/biz/celebrations-by-rachael-clementon?utm_campaign=yelp_api&utm_medium=api_v2_search&utm_source=jt1n4V-SWZuF2zsUveiNwQ","street":"9 Hoffman Ave","city":"Clementon","state":"NJ","zip":"08021"},{"name":"Rena Elle Couture","phone":"8564825551","url":"http://www.yelp.com/biz/rena-elle-couture-maple-shade?utm_campaign=yelp_api&utm_medium=api_v2_search&utm_source=jt1n4V-SWZuF2zsUveiNwQ","street":"486 Rt 38 E","city":"Maple Shade","state":"NJ","zip":"08052"},{"name":"Brûlée Catering","phone":"2159236000","url":"http://www.yelp.com/biz/br%C3%BBl%C3%A9e-catering-philadelphia-2?utm_campaign=yelp_api&utm_medium=api_v2_search&utm_source=jt1n4V-SWZuF2zsUveiNwQ","street":"Please Touch Museum","city":"Philadelphia","state":"PA","zip":"19147"},{"name":"Nicole Bridal & Formal Shoppe","phone":"2158862333","url":"http://www.yelp.com/biz/nicole-bridal-and-formal-shoppe-jenkintown?utm_campaign=yelp_api&utm_medium=api_v2_search&utm_source=jt1n4V-SWZuF2zsUveiNwQ","street":"The Pavilion","city":"Jenkintown","state":"PA","zip":"19046"},{"name":"Philadelphia Airport Marriott","phone":"2154929000","url":"http://www.yelp.com/biz/philadelphia-airport-marriott-philadelphia-2?utm_campaign=yelp_api&utm_medium=api_v2_search&utm_source=jt1n4V-SWZuF2zsUveiNwQ","street":"One Arrivals Road","city":"Philadelphia","state":"PA","zip":"19153"},{"name":"Campbell Studios","phone":"6105174483","url":"http://www.yelp.com/biz/campbell-studios-philadelphia?utm_campaign=yelp_api&utm_medium=api_v2_search&utm_source=jt1n4V-SWZuF2zsUveiNwQ","street":"Hours By Appointment Only","city":"Philadelphia","state":"PA","zip":null},{"name":"Tara Beth Photography","phone":"4846785783","url":"http://www.yelp.com/biz/tara-beth-photography-philadelphia?utm_campaign=yelp_api&utm_medium=api_v2_search&utm_source=jt1n4V-SWZuF2zsUveiNwQ","street":null,"city":"Philadelphia","state":"PA","zip":null},{"name":"Anthony Party Rentals","phone":"6102722800","url":"http://www.yelp.com/biz/anthony-party-rentals-norristown?utm_campaign=yelp_api&utm_medium=api_v2_search&utm_source=jt1n4V-SWZuF2zsUveiNwQ","street":"935 E Main St","city":"Norristown","state":"PA","zip":"19401"},{"name":"F & M Caterers","phone":"8562357245","url":"http://www.yelp.com/biz/f-and-m-caterers-mount-laurel-2?utm_campaign=yelp_api&utm_medium=api_v2_search&utm_source=jt1n4V-SWZuF2zsUveiNwQ","street":"3701 Church Rd","city":"Mount Laurel","state":"NJ","zip":"08054"},{"name":"Sage Catering","phone":"8883771004","url":"http://www.yelp.com/biz/sage-catering-berwyn?utm_campaign=yelp_api&utm_medium=api_v2_search&utm_source=jt1n4V-SWZuF2zsUveiNwQ","street":"1000 Lancaster Ave","city":"Berwyn","state":"PA","zip":"19312"},{"name":"The Merion","phone":"8568292111","url":"http://www.yelp.com/biz/the-merion-cinnaminson?utm_campaign=yelp_api&utm_medium=api_v2_search&utm_source=jt1n4V-SWZuF2zsUveiNwQ","street":"1301 Rt 130 S","city":"Cinnaminson","state":"NJ","zip":"08077"},{"name":"TapSnap Philly","phone":"2152058584","url":"http://www.yelp.com/biz/tapsnap-philly-philadelphia?utm_campaign=yelp_api&utm_medium=api_v2_search&utm_source=jt1n4V-SWZuF2zsUveiNwQ","street":"316 Pemberton St","city":"philadelphia","state":"PA","zip":"19147"},{"name":"Lovely Bride","phone":"2156271800","url":"http://www.yelp.com/biz/lovely-bride-philadelphia?utm_campaign=yelp_api&utm_medium=api_v2_search&utm_source=jt1n4V-SWZuF2zsUveiNwQ","street":"237 Market St","city":"Philadelphia","state":"PA","zip":"19106"},{"name":"Envy Floral Affairs","phone":"6104461216","url":"http://www.yelp.com/biz/envy-floral-affairs-havertown?utm_campaign=yelp_api&utm_medium=api_v2_search&utm_source=jt1n4V-SWZuF2zsUveiNwQ","street":"9 E Eagle Rd","city":"Havertown","state":"PA","zip":"19083"},{"name":"Heather DiPiazza Photography","phone":"2156511873","url":"http://www.yelp.com/biz/heather-dipiazza-photography-philadelphia?utm_campaign=yelp_api&utm_medium=api_v2_search&utm_source=jt1n4V-SWZuF2zsUveiNwQ","street":null,"city":"Philadelphia","state":"PA","zip":"19147"},{"name":"OffShoots","phone":"2154753387","url":"http://www.yelp.com/biz/offshoots-philadelphia?utm_campaign=yelp_api&utm_medium=api_v2_search&utm_source=jt1n4V-SWZuF2zsUveiNwQ","street":"440 Domino Lane","city":"Philadelphia","state":"PA","zip":"19128"},{"name":"Sabrina Ann Once Worn and Never Worn Bridal","phone":"6106426228","url":"http://www.yelp.com/biz/sabrina-ann-once-worn-and-never-worn-bridal-ardmore?utm_campaign=yelp_api&utm_medium=api_v2_search&utm_source=jt1n4V-SWZuF2zsUveiNwQ","street":"24 Ardmore Ave","city":"Ardmore","state":"PA","zip":"19003"},{"name":"Elizabeth Johns","phone":"6106498100","url":"http://www.yelp.com/biz/elizabeth-johns-ardmore?utm_campaign=yelp_api&utm_medium=api_v2_search&utm_source=jt1n4V-SWZuF2zsUveiNwQ","street":"46 Saint James Pl","city":"Ardmore","state":"PA","zip":"19003"},{"name":"Macy's Bridal Salon By Demetrios","phone":"8566614330","url":"http://www.yelp.com/biz/macys-bridal-salon-by-demetrios-cherry-hill?utm_campaign=yelp_api&utm_medium=api_v2_search&utm_source=jt1n4V-SWZuF2zsUveiNwQ","street":"Cherry Hill Mall","city":"Cherry Hill","state":"NJ","zip":"08002"},{"name":"Pennypack Flowers","phone":"2156738588","url":"http://www.yelp.com/biz/pennypack-flowers-philadelphia?utm_campaign=yelp_api&utm_medium=api_v2_search&utm_source=jt1n4V-SWZuF2zsUveiNwQ","street":"9315 Krewstown Road","city":"Philadelphia","state":"PA","zip":"19115"},{"name":"Penny's Flower Shop","phone":"2158849130","url":"http://www.yelp.com/biz/pennys-flower-shop-glenside?utm_campaign=yelp_api&utm_medium=api_v2_search&utm_source=jt1n4V-SWZuF2zsUveiNwQ","street":"263 N Keswick Ave","city":"Glenside","state":"PA","zip":"19038"},{"name":"David's Bridal","phone":"6108255902","url":"http://www.yelp.com/biz/davids-bridal-plymouth-meeting?utm_campaign=yelp_api&utm_medium=api_v2_search&utm_source=jt1n4V-SWZuF2zsUveiNwQ","street":"2600 Chemical Road","city":"Plymouth Meeting","state":"PA","zip":"19462"},{"name":"Angel Bridal of Haddonfield","phone":"8563546196","url":"http://www.yelp.com/biz/angel-bridal-of-haddonfield-haddonfield?utm_campaign=yelp_api&utm_medium=api_v2_search&utm_source=jt1n4V-SWZuF2zsUveiNwQ","street":"50 Tanner St","city":"Haddonfield","state":"NJ","zip":"08033"},{"name":"The Party Concierge","phone":"4846788300","url":"http://www.yelp.com/biz/the-party-concierge-philadelphia?utm_campaign=yelp_api&utm_medium=api_v2_search&utm_source=jt1n4V-SWZuF2zsUveiNwQ","street":"1203 S Alder St","city":"Philadelphia","state":"PA","zip":"19147"},{"name":"Simple Creations","phone":"6094436550","url":"http://www.yelp.com/biz/simple-creations-trenton-5?utm_campaign=yelp_api&utm_medium=api_v2_search&utm_source=jt1n4V-SWZuF2zsUveiNwQ","street":null,"city":"Trenton","state":"NJ","zip":"08690"},{"name":"A To Z Party Rental","phone":"2156466777","url":"http://www.yelp.com/biz/a-to-z-party-rental-montgomeryville?utm_campaign=yelp_api&utm_medium=api_v2_search&utm_source=jt1n4V-SWZuF2zsUveiNwQ","street":"426 Stump Rd","city":"Montgomeryville","state":"PA","zip":"18936"},{"name":"TrueVine Photography","phone":"6104286469","url":"http://www.yelp.com/biz/truevine-photography-coatesville?utm_campaign=yelp_api&utm_medium=api_v2_search&utm_source=jt1n4V-SWZuF2zsUveiNwQ","street":null,"city":"Coatesville","state":"PA","zip":"19320"},{"name":"Dream Studio Photography","phone":"3474785111","url":"http://www.yelp.com/biz/dream-studio-photography-new-york?utm_campaign=yelp_api&utm_medium=api_v2_search&utm_source=jt1n4V-SWZuF2zsUveiNwQ","street":"116 W 23rd St","city":"New York","state":"NY","zip":"10011"},{"name":"Purple Picnic People","phone":"6103681515","url":"http://www.yelp.com/biz/purple-picnic-people-west-chester?utm_campaign=yelp_api&utm_medium=api_v2_search&utm_source=jt1n4V-SWZuF2zsUveiNwQ","street":"1234 Waterford Rd","city":"West Chester","state":"PA","zip":"19380"},{"name":"Infinity Events","phone":"9087306437","url":"http://www.yelp.com/biz/infinity-events-manahawkin?utm_campaign=yelp_api&utm_medium=api_v2_search&utm_source=jt1n4V-SWZuF2zsUveiNwQ","street":"253 Leeward Rd","city":"Manahawkin","state":"NJ","zip":"08505"},{"name":"Nicolosi Catering","phone":"8568453437","url":"http://www.yelp.com/biz/nicolosi-catering-woodbury-2?utm_campaign=yelp_api&utm_medium=api_v2_search&utm_source=jt1n4V-SWZuF2zsUveiNwQ","street":"1 Hessian Ave","city":"Woodbury","state":"NJ","zip":"08096"},{"name":"Springfield Country Club Inc","phone":"6106907600","url":"http://www.yelp.com/biz/springfield-country-club-inc-springfield-2?utm_campaign=yelp_api&utm_medium=api_v2_search&utm_source=jt1n4V-SWZuF2zsUveiNwQ","street":"400 W Sproul Rd","city":"Springfield","state":"PA","zip":"19064"},{"name":"Valleybrook Country Club","phone":"8562273171","url":"http://www.yelp.com/biz/valleybrook-country-club-blackwood?utm_campaign=yelp_api&utm_medium=api_v2_search&utm_source=jt1n4V-SWZuF2zsUveiNwQ","street":"200 Golfview Dr","city":"Blackwood","state":"NJ","zip":"08012"}]
